[{"OBJECT_NAME":"STARLINK-34864","OBJECT_ID":"2025-189H","EPOCH":"2026-03-09T14:19:29.078112","MEAN_MOTION":15.30191136,"ECCENTRICITY":0.000108,"INCLINATION":53.1579,"RA_OF_ASC_NODE":207.0961,"ARG_OF_PERICENTER":83.5896,"MEAN_ANOMALY":276.5227,"EPHEMERIS_TYPE":0,"CLASSIFICATION_TYPE":"U","NORAD_CAT_ID":65330,"ELEMENT_SET_NO":999,"REV_AT_EPOCH":3109,"BSTAR":0.00070413,"MEAN_MOTION_DOT":0.00020547,"MEAN_MOTION_DDOT":0},{"OBJECT_NAME":"FENGYUN 1C DEB","OBJECT_ID":"1999-025BCE","EPOCH":"2026-03-09T20:27:54.391104","MEAN_MOTION":15.38307136,"ECCENTRICITY":0.00917966,"INCLINATION":98.5506,"RA_OF_ASC_NODE":34.4945,"ARG_OF_PERICENTER":39.9911,"MEAN_ANOMALY":320.8043,"EPHEMERIS_TYPE":0,"CLASSIFICATION_TYPE":"U","NORAD_CAT_ID":30988,"ELEMENT_SET_NO":999,"REV_AT_EPOCH":875,"BSTAR":0.0023570074,"MEAN_MOTION_DOT":0.00103953,"MEAN_MOTION_DDOT":0}]
